#aV2023 12 12  0  0  0.00000000     288 DD+AD WGS84 FIT  NGA
## 2292 172800.00000000   300.00000000 60290 0.0000000000000
+   32     1  2  3  4  5  6  7  8  9 10 11 12 13 14 15 16 17
+         18 19 20 21 22 23 24 25 26 27 28 29 30 31 32  0  0
+          0  0  0  0  0  0  0  0  0  0  0  0  0  0  0  0  0
+          0  0  0  0  0  0  0  0  0  0  0  0  0  0  0  0  0
+          0  0  0  0  0  0  0  0  0  0  0  0  0  0  0  0  0
++         2  2  2  2  2  2  2  2  2  2  2  2  2  2  2  2  2
++         2  2  2  2  2  2  2  2  2  2  2  2  2  2  2  0  0
++         0  0  0  0  0  0  0  0  0  0  0  0  0  0  0  0  0
++         0  0  0  0  0  0  0  0  0  0  0  0  0  0  0  0  0
++         0  0  0  0  0  0  0  0  0  0  0  0  0  0  0  0  0
%c cc cc ccc ccc cccc cccc cccc cccc ccccc ccccc ccccc ccccc
%c cc cc ccc ccc cccc cccc cccc cccc ccccc ccccc ccccc ccccc
%f  0.0000000  0.000000000  0.00000000000  0.000000000000000
%f  0.0000000  0.000000000  0.00000000000  0.000000000000000
%i    0    0    0    0      0      0      0      0         0
%i    0    0    0    0      0      0      0      0         0
/*      NGA, ST. LOUIS,MO.                                  
/*   EPHEMERIS COMPUTED FROM 2 DAYS OF DATA                 
/*   EPOCHA v8 SMOOTHER                                     
/*   G2139 IERS2010 SATIGS SATAPC                           
*  2023 12 12 17 45  0.00000000
P  1 -20504.609482 -14370.097054  -9714.392237    163.882796                    
V  1  11430.239867   2787.540882 -28979.796162      0.005086                    
P  2 -16420.425963 -14587.207890 -14586.814412   -516.496568                    
V  2  19184.293366   2911.862118 -23484.124098      0.053054                    
P  3 -11677.780574 -20984.686369  11317.955164     49.719006                    
V  3   -952.310200 -14602.422060 -27598.355068      0.275376                    
P  4 -12100.679269  -9553.884446  21646.347878    237.680209                    
V  4  21170.091035 -17466.708250   3997.353974      0.101133                    
P  5   5982.247819  25821.640901    361.381322   -153.864124                    
V  5  -2715.856169    -36.386519  31998.476972     -0.014520                    
P  6 -14327.828120   9160.664130  20503.498974    480.012703                    
V  6 -24014.118182  -9363.425377 -12542.815243     -0.114818                    
P  7 -25737.304715  -5219.643339  -4931.750690    -10.160487                    
V  7  -5506.525342  -4833.436119  30380.038098     -0.096470                    
P  8  -4897.517210 -15595.488470 -20934.518179   -156.623775                    
V  8  20147.858840 -17248.588529   8578.074511     -0.019327                    
P  9 -19953.139223   1569.587025  17403.577369     24.710436                    
V  9  15302.068945 -16255.576898  18855.993304      0.116802                    
P 10  11862.097917 -11282.311571 -20641.350307    -65.032791                    
V 10   5954.411495  26027.929524 -11022.962570     -0.015666                    
P 11  -2717.323068  15089.893653  21714.549746   -498.034742                    
V 11 -25616.805025  -9995.530338   3694.830222     -0.152529                    
P 12  10049.564685  22122.964315  10533.103541   -456.720420                    
V 12   -717.555782  13949.091414 -27801.549009     -0.039747                    
P 13  -6715.162768  18751.252892 -17665.405385    604.930656                    
V 13 -19399.219211  10682.652129  19140.958808      0.039331                    
P 14 -14204.731367   7364.555404 -21153.961881    268.959024                    
V 14  -5055.918535 -26520.196923  -6006.457142      0.105422                    
P 15   6796.552860  15676.284529 -20779.315943    106.255746                    
V 15 -17374.743110  18615.358412   8779.512937      0.038064                    
P 16   1183.708013 -25640.776086   5482.881818   -405.431643                    
V 16   3824.128204   7107.677129  31078.864867      0.071481                    
P 17 -22707.274122  12536.734912  -5607.377466    722.095834                    
V 17   4642.884771  -6513.696614 -30835.317151     -0.005991                    
P 18  25320.075714   4040.033008  -7273.008138   -504.428529                    
V 18   7901.385297   5156.258867  30133.098226     -0.101272                    
P 19 -20460.948770  16401.402651   2582.777208    411.536719                    
V 19  -4510.388038   -277.646861 -31976.835378      0.052428                    
P 20  -1213.914826  23172.144509  13138.744916    396.996273                    
V 20  -8053.024914 -14643.081911  25005.694982     -0.019223                    
P 21 -13536.650104 -15470.305174 -16812.693275    141.736195                    
V 21  21635.924959   4013.696062 -19579.951202     -0.011087                    
P 22 -11164.972115  15450.849430 -18176.492775     67.284742                    
V 22  -3810.458677 -23613.483516 -17034.228808     -0.067955                    
P 23  15432.999224   2689.641168 -21460.798783    114.876252                    
V 23   5480.397866  26651.631887   7093.172706      0.068580                    
P 24  16248.882356  15416.093072 -14988.213626   -391.867025                    
V 24 -18257.699353  -2158.376447 -22207.072427     -0.081741                    
P 25  15516.953438  11454.718237  18047.943779    481.206008                    
V 25   3209.882988  23352.639844 -16999.241425      0.014989                    
P 26   5296.021142 -21383.346791  14435.574033    209.779994                    
V 26   7816.955420  17351.096377  22981.667251     -0.030524                    
P 27   8591.192752 -20655.836379 -14241.457266    -82.099608                    
V 27  14876.244186 -10037.593834  24388.569337     -0.048139                    
P 28  16534.832369  -8680.419879  18857.921282    -68.355764                    
V 28  22513.431935   8440.569334 -15837.150903     -0.098797                    
P 29  19549.323041    707.471689  17968.188447   -609.814253                    
V 29 -17544.191718  14676.535874  18365.325516      0.002817                    
P 30 -22186.303466   3379.737967 -14286.144905   -458.214660                    
V 30 -16426.122670  -8484.127691  23039.168636      0.042954                    
P 31   8655.297540 -12938.880629  21348.915506   -226.537499                    
V 31  25772.329507   9827.125151  -4045.202594     -0.002958                    
P 32  20934.782146 -15878.388307  -2805.315333   -595.616523                    
V 32   -871.948673   4770.850924 -31624.537380     -0.037500                    
EOF
